STARLINK-37642          
1 69455U 26127N   26173.83335648 -.00149921  00000+0 -98907-3 0  9999
2 69455  53.1588 234.0904 0001292  83.9856  84.7305 15.75288210  3555
STARLINK-37513          
1 69456U 26127P   26173.78899317  .00177384  00000+0  88118-3 0  9997
2 69456  53.1577 234.1392 0000977 101.6465 258.4668 15.80940241  2296
STARLINK-37563          
1 69457U 26127Q   26173.00002315 -.02103052  00000+0 -14284-1 0  9993
2 69457  53.1591 238.0748 0000886  81.2858 114.7270 15.77252226  3412
STARLINK-37565          
1 69458U 26127R   26173.66068397  .00205864  00000+0  10178-2 0  9997
2 69458  53.1582 234.7606 0001063  73.1675 286.9464 15.80959823  2275
STARLINK-37498          
1 69459U 26127S   26173.83335648 -.00169623  00000+0 -11212-2 0  9997
2 69459  53.1587 234.0329 0001223  84.8484 111.4718 15.75307606  3557
STARLINK-37384          
1 69460U 26127T   26173.59565194 -.00784996  00000+0 -47445-2 0  9996
2 69460  53.1583 235.0644 0002281  21.1723 338.9393 15.78969119  2269
STARLINK-37707          
1 69461U 26127U   26173.21077531  .00255744  00000+0  13243-2 0  9990
2 69461  53.1590 236.9282 0004671 212.3277 147.7460 15.79797388  2202
STARLINK-37525          
1 69462U 26127V   26173.77921326  .00279475  00000+0  13682-2 0  9996
2 69462  53.1590 234.0728 0001190  67.6835 292.4314 15.80966751  2290
STARLINK-37526          
1 69463U 26127W   26173.77858456  .00254016  00000+0  12472-2 0  9990
2 69463  53.1588 234.0681 0001123  52.2089 307.9035 15.80973692  2297
STARLINK-37574          
1 69464U 26127X   26173.83335648 -.00242815  00000+0 -16172-2 0  9998
2 69464  53.1597 233.7705 0001145  62.8973 260.3055 15.75357980  3558
STARLINK-37535          
1 69465U 26127Y   26173.64715115  .00207999  00000+0  10281-2 0  9996
2 69465  53.1589 234.6682 0000785  66.4819 293.6286 15.80958423  2270
STARLINK-37583          
1 69466U 26127Z   26173.83335648 -.00095681  00000+0 -48566-3 0  9990
2 69466  53.1586 233.6086 0001057  81.1094 320.2068 15.80914559  3556
STARLINK-37546          
1 69467U 26127AA  26173.83335648 -.00165463  00000+0 -10935-2 0  9995
2 69467  53.1594 233.6622 0001121  70.6394 304.1007 15.75299057  3557
STARLINK-37532          
1 69468U 26127AB  26173.83335648 -.00063260  00000+0 -31902-3 0  9996
2 69468  53.1584 233.5945 0001084  85.2579 322.5885 15.80892201  3553
STARLINK-37708          
1 69469U 26127AC  26173.83335648 -.00188272  00000+0 -12474-2 0  9990
2 69469  53.1594 233.6575 0000844  83.1386 293.4633 15.75315430  3556
STARLINK-37686          
1 69470U 26127AD  26173.83335648 -.00092006  00000+0 -60057-3 0  9992
2 69470  53.1593 233.6088 0001407  54.5272 345.9059 15.75313427  3557
STARLINK-37451          
1 69471U 26127AE  26173.83335648 -.00091165  00000+0 -46249-3 0  9995
2 69471  53.1586 233.5303 0001091  81.3510 357.2191 15.80907104  3551
DTC TEST OBJECT A       
1 69472U 26128A   26173.75698748  .00021669  00000+0  31106-3 0  9997
2 69472  54.9932 279.2938 0009155 309.7550  50.2679 15.56079888  2098
DTC TEST OBJECT B       
1 69473U 26128B   26173.56097087  .00025330  00000+0  35570-3 0  9994
2 69473  55.0025 280.1758 0009117 309.7397  50.2835 15.56579529  2059
TJS-25                  
1 69474U 26129A   26162.48255804  .00007407  00000+0  19774-2 0  9990
2 69474  16.5302  30.5351 7751889 199.9639  91.9387  1.72502163    78
STARLINK-37816          
1 69478U 26131A   26173.83335648 -.01075740  00000+0 -51818-2 0  9996
2 69478  97.2810 194.4332 0001273  75.7820 332.8899 15.85130069  2924
STARLINK-37878          
1 69479U 26131B   26173.83335648 -.00108330  00000+0 -57106-3 0  9995
2 69479  97.2826 194.4256 0000655  79.4783 311.3015 15.80847783  1800
STARLINK-37817          
1 69480U 26131C   26173.83335648 -.01087527  00000+0 -52036-2 0  9998
2 69480  97.2811 194.4362 0001321  81.8686 334.3573 15.85297430  2925
STARLINK-37727          
1 69481U 26131D   26173.83335648 -.01095888  00000+0 -52311-2 0  9994
2 69481  97.2808 194.4378 0001342  76.1556 343.9591 15.85367384  2927
STARLINK-37814          
1 69482U 26131E   26173.83335648 -.01097200  00000+0 -52145-2 0  9990
2 69482  97.2812 194.4396 0001347  78.0699 345.7023 15.85460840  2928
STARLINK-37869          
1 69483U 26131F   26173.83335648 -.01104107  00000+0 -52379-2 0  9995
2 69483  97.2814 194.4411 0001324  76.9102 350.8584 15.85515379  2927
STARLINK-37873          
1 69484U 26131G   26173.83335648 -.01110501  00000+0 -52500-2 0  9997
2 69484  97.2814 194.4427 0001363  76.8738 354.6222 15.85602059  2925
STARLINK-37892          
1 69485U 26131H   26173.83335648 -.01104659  00000+0 -51863-2 0  9996
2 69485  97.2815 194.4443 0001362  74.9832 359.7994 15.85730327  2920
STARLINK-37893          
1 69486U 26131J   26173.83335648 -.01110395  00000+0 -51966-2 0  9995
2 69486  97.2816 194.4457 0001379  78.2597   0.2916 15.85810037  3009
STARLINK-37842          
1 69487U 26131K   26173.83335648 -.01110240  00000+0 -51754-2 0  9990
2 69487  97.2816 194.4475 0001396  75.4463   6.8170 15.85890322  2929
