OBJECT_NAME,OBJECT_ID,EPOCH,MEAN_MOTION,ECCENTRICITY,INCLINATION,RA_OF_ASC_NODE,ARG_OF_PERICENTER,MEAN_ANOMALY,EPHEMERIS_TYPE,CLASSIFICATION_TYPE,NORAD_CAT_ID,ELEMENT_SET_NO,REV_AT_EPOCH,BSTAR,MEAN_MOTION_DOT,MEAN_MOTION_DDOT
STARLINK-37642,2026-127N,2026-06-22T20:00:01.999872,15.75288210,.00012925,53.1588,234.0904,83.9856,84.7305,0,U,69455,999,355,-.98906752E-3,-.149921E-2,0
STARLINK-37513,2026-127P,2026-06-22T18:56:09.009888,15.80940241,.00009771,53.1577,234.1392,101.6465,258.4668,0,U,69456,999,229,.88117943E-3,.177384E-2,0
STARLINK-37563,2026-127Q,2026-06-22T00:00:02.000160,15.77252226,.0000886,53.1591,238.0748,81.2858,114.7270,0,U,69457,999,341,-.14283845E-1,-.2103052E-1,0
STARLINK-37565,2026-127R,2026-06-22T15:51:23.095008,15.80959823,.00010632,53.1582,234.7606,73.1675,286.9464,0,U,69458,999,227,.10177947E-2,.205864E-2,0
STARLINK-37498,2026-127S,2026-06-22T20:00:01.999872,15.75307606,.00012235,53.1587,234.0329,84.8484,111.4718,0,U,69459,999,355,-.11212464E-2,-.169623E-2,0
STARLINK-37384,2026-127T,2026-06-22T14:17:44.327616,15.78969119,.00022817,53.1583,235.0644,21.1723,338.9393,0,U,69460,999,226,-.4744539E-2,-.784996E-2,0
STARLINK-37707,2026-127U,2026-06-22T05:03:30.986784,15.79797388,.00046712,53.1590,236.9282,212.3277,147.7460,0,U,69461,999,220,.13243157E-2,.255744E-2,0
STARLINK-37525,2026-127V,2026-06-22T18:42:04.025664,15.80966751,.00011904,53.1590,234.0728,67.6835,292.4314,0,U,69462,999,229,.13682416E-2,.279475E-2,0
STARLINK-37526,2026-127W,2026-06-22T18:41:09.705984,15.80973692,.00011235,53.1588,234.0681,52.2089,307.9035,0,U,69463,999,229,.1247219E-2,.254016E-2,0
STARLINK-37574,2026-127X,2026-06-22T20:00:01.999872,15.75357980,.00011454,53.1597,233.7705,62.8973,260.3055,0,U,69464,999,355,-.16171654E-2,-.242815E-2,0
STARLINK-37535,2026-127Y,2026-06-22T15:31:53.859360,15.80958423,.00007854,53.1589,234.6682,66.4819,293.6286,0,U,69465,999,227,.10281191E-2,.207999E-2,0
STARLINK-37583,2026-127Z,2026-06-22T20:00:01.999872,15.80914559,.00010575,53.1586,233.6086,81.1094,320.2068,0,U,69466,999,355,-.48566165E-3,-.95681E-3,0
STARLINK-37546,2026-127AA,2026-06-22T20:00:01.999872,15.75299057,.00011219,53.1594,233.6622,70.6394,304.1007,0,U,69467,999,355,-.10935377E-2,-.165463E-2,0
STARLINK-37532,2026-127AB,2026-06-22T20:00:01.999872,15.80892201,.00010841,53.1584,233.5945,85.2579,322.5885,0,U,69468,999,355,-.31902247E-3,-.6326E-3,0
STARLINK-37708,2026-127AC,2026-06-22T20:00:01.999872,15.75315430,.00008443,53.1594,233.6575,83.1386,293.4633,0,U,69469,999,355,-.1247356E-2,-.188272E-2,0
STARLINK-37686,2026-127AD,2026-06-22T20:00:01.999872,15.75313427,.00014072,53.1593,233.6088,54.5272,345.9059,0,U,69470,999,355,-.60057122E-3,-.92006E-3,0
STARLINK-37451,2026-127AE,2026-06-22T20:00:01.999872,15.80907104,.00010919,53.1586,233.5303,81.3510,357.2191,0,U,69471,999,355,-.46248952E-3,-.91165E-3,0
DTC TEST OBJECT A,2026-128A,2026-06-22T18:10:03.718272,15.56079888,.00091556,54.9932,279.2938,309.7550,50.2679,0,U,69472,999,209,.3110629E-3,.21669E-3,0
DTC TEST OBJECT B,2026-128B,2026-06-22T13:27:47.883168,15.56579529,.00091176,55.0025,280.1758,309.7397,50.2835,0,U,69473,999,205,.35570022E-3,.2533E-3,0
TJS-25,2026-129A,2026-06-11T11:34:53.014656,1.72502163,.7751889,16.5302,30.5351,199.9639,91.9387,0,U,69474,999,7,.19774E-2,.7407E-4,0
STARLINK-37816,2026-131A,2026-06-22T20:00:01.999872,15.85130069,.00012739,97.2810,194.4332,75.7820,332.8899,0,U,69478,999,292,-.51818354E-2,-.107574E-1,0
STARLINK-37878,2026-131B,2026-06-22T20:00:01.999872,15.80847783,.00006554,97.2826,194.4256,79.4783,311.3015,0,U,69479,999,180,-.57105695E-3,-.10833E-2,0
STARLINK-37817,2026-131C,2026-06-22T20:00:01.999872,15.85297430,.00013214,97.2811,194.4362,81.8686,334.3573,0,U,69480,999,292,-.52035986E-2,-.1087527E-1,0
STARLINK-37727,2026-131D,2026-06-22T20:00:01.999872,15.85367384,.0001342,97.2808,194.4378,76.1556,343.9591,0,U,69481,999,292,-.52310654E-2,-.1095888E-1,0
STARLINK-37814,2026-131E,2026-06-22T20:00:01.999872,15.85460840,.0001347,97.2812,194.4396,78.0699,345.7023,0,U,69482,999,292,-.52144676E-2,-.10972E-1,0
STARLINK-37869,2026-131F,2026-06-22T20:00:01.999872,15.85515379,.00013243,97.2814,194.4411,76.9102,350.8584,0,U,69483,999,292,-.52378509E-2,-.1104107E-1,0
STARLINK-37873,2026-131G,2026-06-22T20:00:01.999872,15.85602059,.00013634,97.2814,194.4427,76.8738,354.6222,0,U,69484,999,292,-.52499872E-2,-.1110501E-1,0
STARLINK-37892,2026-131H,2026-06-22T20:00:01.999872,15.85730327,.00013622,97.2815,194.4443,74.9832,359.7994,0,U,69485,999,292,-.5186272E-2,-.1104659E-1,0
STARLINK-37893,2026-131J,2026-06-22T20:00:01.999872,15.85810037,.00013798,97.2816,194.4457,78.2597,0.2916,0,U,69486,999,300,-.51965559E-2,-.1110395E-1,0
STARLINK-37842,2026-131K,2026-06-22T20:00:01.999872,15.85890322,.00013964,97.2816,194.4475,75.4463,6.8170,0,U,69487,999,292,-.51754116E-2,-.111024E-1,0
